ONEWEB-0547             
1 56049U 23043D   26017.61303626 -.00000033  00000+0 -11039-3 0  9993
2 56049  87.9218 274.0099 0001432  74.8134 285.3158 13.21823746138336
ONEWEB-0548             
1 56050U 23043E   26017.65015691  .00000143  00000+0  33991-3 0  9992
2 56050  87.9024 258.7442 0001857  68.0748 292.0580 13.16593788139150
ONEWEB-0549             
1 56051U 23043F   26017.45425098 -.00000042  00000+0 -13379-3 0  9995
2 56051  87.9214 274.0544 0001298  76.2851 283.8428 13.21825515138319
ONEWEB-0550             
1 56052U 23043G   26017.66817246  .00000960  00000+0  22926-2 0  9993
2 56052  87.9223 274.0073 0001648  75.8502 284.2816 13.21833742138344
ONEWEB-0551             
1 56053U 23043H   26017.48567090 -.00000041  00000+0 -14272-3 0  9991
2 56053  87.8996 289.3130 0001196  74.0793 286.0469 13.15542861136585
ONEWEB-0552             
1 56054U 23043J   26017.13335873  .00000085  00000+0  17521-3 0  9992
2 56054  87.9216 274.1224 0001452  66.6147 293.5140 13.21825385138272
ONEWEB-0553             
1 56055U 23043K   26017.40394579  .00000025  00000+0  32430-4 0  9992
2 56055  87.9028 258.7958 0001788  86.0453 274.0882 13.16596577139139
ONEWEB-0554             
1 56056U 23043L   26017.61927541 -.00000060  00000+0 -19004-3 0  9999
2 56056  87.9029 258.7640 0001762  72.6707 287.4617 13.16595879139143
ONEWEB-0555             
1 56057U 23043M   26017.65728814  .00000104  00000+0  23897-3 0  9998
2 56057  87.9027 258.7404 0001869  90.9639 269.1706 13.16595264139150
ONEWEB-0557             
1 56058U 23043N   26017.59554329  .00000001  00000+0 -30965-4 0  9992
2 56058  87.9029 258.7646 0002780  76.4776 283.6665 13.16595281139148
ONEWEB-0558             
1 56059U 23043P   26017.65665585  .00000103  00000+0  21710-3 0  9996
2 56059  87.9212 274.0107 0001039  80.5814 279.5437 13.21825681138350
ONEWEB-0559             
1 56060U 23043Q   26017.64511999 -.00000222  00000+0 -56919-3 0  9999
2 56060  87.9214 274.0067 0001318  68.3148 291.8126 13.21825659138361
ONEWEB-0566             
1 56061U 23043R   26017.41144317  .00000076  00000+0  15238-3 0  9995
2 56061  87.9217 274.0521 0001210  71.9069 288.2196 13.21825483138310
ONEWEB-0568             
1 56062U 23043S   26017.61295375 -.00000061  00000+0 -19221-3 0  9991
2 56062  87.9032 258.7499 0001663  87.2704 272.8617 13.16594672139165
ONEWEB-0574             
1 56063U 23043T   26017.40488523  .00000115  00000+0  24670-3 0  9990
2 56063  87.9222 274.0414 0001736  73.5018 286.6307 13.21826133138357
ONEWEB-0575             
1 56064U 23043U   26017.60661781 -.00000037  00000+0 -12952-3 0  9997
2 56064  87.9028 258.7502 0001929  77.2604 282.8742 13.16594914139158
