[{"OBJECT_NAME":"ONEWEB-0547","OBJECT_ID":"2023-043D","EPOCH":"2026-01-17T14:42:46.332864","MEAN_MOTION":13.21823746,"ECCENTRICITY":0.00014329,"INCLINATION":87.9218,"RA_OF_ASC_NODE":274.0099,"ARG_OF_PERICENTER":74.8134,"MEAN_ANOMALY":285.3158,"EPHEMERIS_TYPE":0,"CLASSIFICATION_TYPE":"U","NORAD_CAT_ID":56049,"ELEMENT_SET_NO":999,"REV_AT_EPOCH":13833,"BSTAR":-0.00011039259,"MEAN_MOTION_DOT":-3.3e-7,"MEAN_MOTION_DDOT":0},{"OBJECT_NAME":"ONEWEB-0548","OBJECT_ID":"2023-043E","EPOCH":"2026-01-17T15:36:13.557024","MEAN_MOTION":13.16593788,"ECCENTRICITY":0.00018577,"INCLINATION":87.9024,"RA_OF_ASC_NODE":258.7442,"ARG_OF_PERICENTER":68.0748,"MEAN_ANOMALY":292.058,"EPHEMERIS_TYPE":0,"CLASSIFICATION_TYPE":"U","NORAD_CAT_ID":56050,"ELEMENT_SET_NO":999,"REV_AT_EPOCH":13915,"BSTAR":0.00033990884,"MEAN_MOTION_DOT":1.43e-6,"MEAN_MOTION_DDOT":0},{"OBJECT_NAME":"ONEWEB-0549","OBJECT_ID":"2023-043F","EPOCH":"2026-01-17T10:54:07.284672","MEAN_MOTION":13.21825515,"ECCENTRICITY":0.00012984,"INCLINATION":87.9214,"RA_OF_ASC_NODE":274.0544,"ARG_OF_PERICENTER":76.2851,"MEAN_ANOMALY":283.8428,"EPHEMERIS_TYPE":0,"CLASSIFICATION_TYPE":"U","NORAD_CAT_ID":56051,"ELEMENT_SET_NO":999,"REV_AT_EPOCH":13831,"BSTAR":-0.00013378708,"MEAN_MOTION_DOT":-4.2e-7,"MEAN_MOTION_DDOT":0},{"OBJECT_NAME":"ONEWEB-0550","OBJECT_ID":"2023-043G","EPOCH":"2026-01-17T16:02:10.100544","MEAN_MOTION":13.21833742,"ECCENTRICITY":0.00016486,"INCLINATION":87.9223,"RA_OF_ASC_NODE":274.0073,"ARG_OF_PERICENTER":75.8502,"MEAN_ANOMALY":284.2816,"EPHEMERIS_TYPE":0,"CLASSIFICATION_TYPE":"U","NORAD_CAT_ID":56052,"ELEMENT_SET_NO":999,"REV_AT_EPOCH":13834,"BSTAR":0.002292582,"MEAN_MOTION_DOT":9.6e-6,"MEAN_MOTION_DDOT":0},{"OBJECT_NAME":"ONEWEB-0551","OBJECT_ID":"2023-043H","EPOCH":"2026-01-17T11:39:21.965760","MEAN_MOTION":13.15542861,"ECCENTRICITY":0.00011964,"INCLINATION":87.8996,"RA_OF_ASC_NODE":289.313,"ARG_OF_PERICENTER":74.0793,"MEAN_ANOMALY":286.0469,"EPHEMERIS_TYPE":0,"CLASSIFICATION_TYPE":"U","NORAD_CAT_ID":56053,"ELEMENT_SET_NO":999,"REV_AT_EPOCH":13658,"BSTAR":-0.00014272102,"MEAN_MOTION_DOT":-4.1e-7,"MEAN_MOTION_DDOT":0},{"OBJECT_NAME":"ONEWEB-0552","OBJECT_ID":"2023-043J","EPOCH":"2026-01-17T03:12:02.194272","MEAN_MOTION":13.21825385,"ECCENTRICITY":0.00014527,"INCLINATION":87.9216,"RA_OF_ASC_NODE":274.1224,"ARG_OF_PERICENTER":66.6147,"MEAN_ANOMALY":293.514,"EPHEMERIS_TYPE":0,"CLASSIFICATION_TYPE":"U","NORAD_CAT_ID":56054,"ELEMENT_SET_NO":999,"REV_AT_EPOCH":13827,"BSTAR":0.00017521049,"MEAN_MOTION_DOT":8.5e-7,"MEAN_MOTION_DDOT":0},{"OBJECT_NAME":"ONEWEB-0553","OBJECT_ID":"2023-043K","EPOCH":"2026-01-17T09:41:40.916256","MEAN_MOTION":13.16596577,"ECCENTRICITY":0.00017883,"INCLINATION":87.9028,"RA_OF_ASC_NODE":258.7958,"ARG_OF_PERICENTER":86.0453,"MEAN_ANOMALY":274.0882,"EPHEMERIS_TYPE":0,"CLASSIFICATION_TYPE":"U","NORAD_CAT_ID":56055,"ELEMENT_SET_NO":999,"REV_AT_EPOCH":13913,"BSTAR":3.2429876e-5,"MEAN_MOTION_DOT":2.5e-7,"MEAN_MOTION_DDOT":0},{"OBJECT_NAME":"ONEWEB-0554","OBJECT_ID":"2023-043L","EPOCH":"2026-01-17T14:51:45.395424","MEAN_MOTION":13.16595879,"ECCENTRICITY":0.00017622,"INCLINATION":87.9029,"RA_OF_ASC_NODE":258.764,"ARG_OF_PERICENTER":72.6707,"MEAN_ANOMALY":287.4617,"EPHEMERIS_TYPE":0,"CLASSIFICATION_TYPE":"U","NORAD_CAT_ID":56056,"ELEMENT_SET_NO":999,"REV_AT_EPOCH":13914,"BSTAR":-0.00019003976,"MEAN_MOTION_DOT":-6.0e-7,"MEAN_MOTION_DDOT":0},{"OBJECT_NAME":"ONEWEB-0555","OBJECT_ID":"2023-043M","EPOCH":"2026-01-17T15:46:29.695296","MEAN_MOTION":13.16595264,"ECCENTRICITY":0.00018693,"INCLINATION":87.9027,"RA_OF_ASC_NODE":258.7404,"ARG_OF_PERICENTER":90.9639,"MEAN_ANOMALY":269.1706,"EPHEMERIS_TYPE":0,"CLASSIFICATION_TYPE":"U","NORAD_CAT_ID":56057,"ELEMENT_SET_NO":999,"REV_AT_EPOCH":13915,"BSTAR":0.00023897025,"MEAN_MOTION_DOT":1.04e-6,"MEAN_MOTION_DDOT":0},{"OBJECT_NAME":"ONEWEB-0557","OBJECT_ID":"2023-043N","EPOCH":"2026-01-17T14:17:34.940256","MEAN_MOTION":13.16595281,"ECCENTRICITY":0.000278,"INCLINATION":87.9029,"RA_OF_ASC_NODE":258.7646,"ARG_OF_PERICENTER":76.4776,"MEAN_ANOMALY":283.6665,"EPHEMERIS_TYPE":0,"CLASSIFICATION_TYPE":"U","NORAD_CAT_ID":56058,"ELEMENT_SET_NO":999,"REV_AT_EPOCH":13914,"BSTAR":-3.0964527e-5,"MEAN_MOTION_DOT":1.0e-8,"MEAN_MOTION_DDOT":0},{"OBJECT_NAME":"ONEWEB-0558","OBJECT_ID":"2023-043P","EPOCH":"2026-01-17T15:45:35.065440","MEAN_MOTION":13.21825681,"ECCENTRICITY":0.00010394,"INCLINATION":87.9212,"RA_OF_ASC_NODE":274.0107,"ARG_OF_PERICENTER":80.5814,"MEAN_ANOMALY":279.5437,"EPHEMERIS_TYPE":0,"CLASSIFICATION_TYPE":"U","NORAD_CAT_ID":56059,"ELEMENT_SET_NO":999,"REV_AT_EPOCH":13835,"BSTAR":0.00021710271,"MEAN_MOTION_DOT":1.03e-6,"MEAN_MOTION_DDOT":0},{"OBJECT_NAME":"ONEWEB-0559","OBJECT_ID":"2023-043Q","EPOCH":"2026-01-17T15:28:58.367136","MEAN_MOTION":13.21825659,"ECCENTRICITY":0.00013186,"INCLINATION":87.9214,"RA_OF_ASC_NODE":274.0067,"ARG_OF_PERICENTER":68.3148,"MEAN_ANOMALY":291.8126,"EPHEMERIS_TYPE":0,"CLASSIFICATION_TYPE":"U","NORAD_CAT_ID":56060,"ELEMENT_SET_NO":999,"REV_AT_EPOCH":13836,"BSTAR":-0.00056919372,"MEAN_MOTION_DOT":-2.22e-6,"MEAN_MOTION_DDOT":0},{"OBJECT_NAME":"ONEWEB-0566","OBJECT_ID":"2023-043R","EPOCH":"2026-01-17T09:52:28.689888","MEAN_MOTION":13.21825483,"ECCENTRICITY":0.00012108,"INCLINATION":87.9217,"RA_OF_ASC_NODE":274.0521,"ARG_OF_PERICENTER":71.9069,"MEAN_ANOMALY":288.2196,"EPHEMERIS_TYPE":0,"CLASSIFICATION_TYPE":"U","NORAD_CAT_ID":56061,"ELEMENT_SET_NO":999,"REV_AT_EPOCH":13831,"BSTAR":0.00015238347,"MEAN_MOTION_DOT":7.6e-7,"MEAN_MOTION_DDOT":0},{"OBJECT_NAME":"ONEWEB-0568","OBJECT_ID":"2023-043S","EPOCH":"2026-01-17T14:42:39.204000","MEAN_MOTION":13.16594672,"ECCENTRICITY":0.00016635,"INCLINATION":87.9032,"RA_OF_ASC_NODE":258.7499,"ARG_OF_PERICENTER":87.2704,"MEAN_ANOMALY":272.8617,"EPHEMERIS_TYPE":0,"CLASSIFICATION_TYPE":"U","NORAD_CAT_ID":56062,"ELEMENT_SET_NO":999,"REV_AT_EPOCH":13916,"BSTAR":-0.00019220569,"MEAN_MOTION_DOT":-6.1e-7,"MEAN_MOTION_DDOT":0},{"OBJECT_NAME":"ONEWEB-0574","OBJECT_ID":"2023-043T","EPOCH":"2026-01-17T09:43:02.083872","MEAN_MOTION":13.21826133,"ECCENTRICITY":0.00017367,"INCLINATION":87.9222,"RA_OF_ASC_NODE":274.0414,"ARG_OF_PERICENTER":73.5018,"MEAN_ANOMALY":286.6307,"EPHEMERIS_TYPE":0,"CLASSIFICATION_TYPE":"U","NORAD_CAT_ID":56063,"ELEMENT_SET_NO":999,"REV_AT_EPOCH":13835,"BSTAR":0.0002466987,"MEAN_MOTION_DOT":1.15e-6,"MEAN_MOTION_DDOT":0},{"OBJECT_NAME":"ONEWEB-0575","OBJECT_ID":"2023-043U","EPOCH":"2026-01-17T14:33:31.778784","MEAN_MOTION":13.16594914,"ECCENTRICITY":0.00019297,"INCLINATION":87.9028,"RA_OF_ASC_NODE":258.7502,"ARG_OF_PERICENTER":77.2604,"MEAN_ANOMALY":282.8742,"EPHEMERIS_TYPE":0,"CLASSIFICATION_TYPE":"U","NORAD_CAT_ID":56064,"ELEMENT_SET_NO":999,"REV_AT_EPOCH":13915,"BSTAR":-0.00012951613,"MEAN_MOTION_DOT":-3.7e-7,"MEAN_MOTION_DDOT":0}]
